GPS BIIR-2  (PRN 13)    
1 24876U 97035A   23107.49590896  .00000074  00000+0  00000+0 0  9993
2 24876  55.5585 143.8049 0066688  51.0910 309.5808  2.00564096188755
GPS BIIR-4  (PRN 20)    
1 26360U 00025A   23107.88392473 -.00000042  00000+0  00000+0 0  9996
2 26360  54.3158  66.3227 0043044 197.8150 169.5667  2.00549096168085
GPS BIIR-8  (PRN 16)    
1 27663U 03005A   23107.37005411 -.00000032  00000+0  00000+0 0  9990
2 27663  55.3227 260.9779 0132216  44.2581 291.1792  2.00573995148104
GPS BIIR-9  (PRN 21)    
1 27704U 03010A   23107.30077941 -.00000104  00000+0  00000+0 0  9992
2 27704  55.1010  11.0218 0249337 315.0615 188.2398  2.00568518146900
GPS BIIR-11 (PRN 19)    
1 28190U 04009A   23107.67422819 -.00000053  00000+0  00000+0 0  9992
2 28190  55.7980 322.0090 0091370 131.2240 221.2542  2.00570523139741
GPS BIIR-13 (PRN 02)    
1 28474U 04045A   23107.91280628 -.00000105  00000+0  00000+0 0  9992
2 28474  55.4262  11.2531 0199864 284.7362  88.8398  2.00563152135235
GPS BIIRM-1 (PRN 17)    
1 28874U 05038A   23107.51718634 -.00000048  00000+0  00000+0 0  9994
2 28874  55.8533 319.4613 0137402 279.0992 344.4683  2.00555074128632
GPS BIIRM-2 (PRN 31)    
1 29486U 06042A   23107.35525764 -.00000008  00000+0  00000+0 0  9998
2 29486  54.6885 197.2053 0104807  28.9537  25.7748  2.00502047121195
GPS BIIRM-3 (PRN 12)    
1 29601U 06052A   23107.21569907 -.00000031  00000+0  00000+0 0  9996
2 29601  55.3392 259.9357 0086740  77.6364 283.2930  2.00569412120206
GPS BIIRM-4 (PRN 15)    
1 32260U 07047A   23107.02022230  .00000072  00000+0  00000+0 0  9992
2 32260  53.4110 127.9559 0145844  67.7641 293.8399  2.00559263113600
GPS BIIRM-5 (PRN 29)    
1 32384U 07062A   23107.10719250 -.00000046  00000+0  00000+0 0  9992
2 32384  55.9813 320.2792 0022636 139.0771  55.3500  2.00551021112306
GPS BIIRM-6 (PRN 07)    
1 32711U 08012A   23107.43282787 -.00000005  00000+0  00000+0 0  9993
2 32711  54.4539 196.0670 0172898 234.1000 124.3151  2.00553639110552
GPS BIIRM-8 (PRN 05)    
1 35752U 09043A   23107.91418274 -.00000024  00000+0  00000+0 0  9992
2 35752  55.3191  73.2956 0056492  63.9235 297.7682  2.00566396100171
GPS BIIF-1  (PRN 25)    
1 36585U 10022A   23107.70346071 -.00000037  00000+0  00000+0 0  9992
2 36585  54.6324 255.2269 0109608  59.3631 268.0159  2.00554600 94393
GPS BIIF-2  (PRN 01)    
1 37753U 11036A   23107.41096743 -.00000104  00000+0  00000+0 0  9997
2 37753  56.7128  16.8917 0125185  53.8922 144.7685  2.00567232 86072
GPS BIIF-3  (PRN 24)    
1 38833U 12053A   23107.11929931 -.00000001  00000+0  00000+0 0  9994
2 38833  53.5127 190.9239 0136198  50.4194 310.8145  2.00565014 76237
GPS BIIF-4  (PRN 27)    
1 39166U 13023A   23106.97880511 -.00000041  00000+0  00000+0 0  9999
2 39166  55.4718 315.7352 0113952  40.6396 320.2399  2.00564720 72678
GPS BIIF-5  (PRN 30)    
1 39533U 14008A   23107.47759665 -.00000006  00000+0  00000+0 0  9993
2 39533  53.6018 196.4497 0064951 212.1883 147.4443  2.00570444 66485
GPS BIIF-6  (PRN 06)    
1 39741U 14026A   23107.25650603 -.00000103  00000+0  00000+0 0  9990
2 39741  56.6684  16.4210 0030212 312.9792  46.7845  2.00567123 65333
GPS BIIF-7  (PRN 09)    
1 40105U 14045A   23107.34950937  .00000076  00000+0  00000+0 0  9998
2 40105  54.7694 134.6642 0021436 114.9164 245.3762  2.00567903 62879
GPS BIIF-8  (PRN 03)    
1 40294U 14068A   23107.22295104 -.00000008  00000+0  00000+0 0  9993
2 40294  56.0617  75.9611 0044808  56.1456 304.2605  2.00562240 62005
GPS BIIF-9  (PRN 26)    
1 40534U 15013A   23107.35501696 -.00000038  00000+0  00000+0 0  9994
2 40534  53.5314 252.0938 0077979  25.1234 335.2086  2.00563215 58626
GPS BIIF-10 (PRN 08)    
1 40730U 15033A   23107.51550370 -.00000046  00000+0  00000+0 0  9994
2 40730  54.9629 314.3955 0084018  13.0044 347.2415  2.00562294 56797
GPS BIIF-11 (PRN 10)    
1 41019U 15062A   23107.57001662 -.00000013  00000+0  00000+0 0  9992
2 41019  56.0472  75.7953 0086368 222.0881 137.2266  2.00562216 54630
GPS BIIF-12 (PRN 32)    
1 41328U 16007A   23107.15951270  .00000076  00000+0  00000+0 0  9996
2 41328  54.9780 135.4165 0070320 234.0996 125.3148  2.00556451 52631
GPS BIII-1  (PRN 04)    
1 43873U 18109A   23107.56160823  .00000076  00000+0  00000+0 0  9999
2 43873  55.1553 137.8858 0024119 194.5526 345.9865  2.00561847 31872
GPS BIII-2  (PRN 18)    
1 44506U 19056A   23107.18704681 -.00000104  00000+0  00000+0 0  9992
2 44506  55.7891  16.9906 0030851 184.2045 346.8613  2.00563051 26863
GPS BIII-3  (PRN 23)    
1 45854U 20041A   23107.11750014 -.00000012  00000+0  00000+0 0  9997
2 45854  55.7677  74.2661 0031003 187.4626 236.2118  2.00565853 20832
GPS BIII-4  (PRN 14)    
1 46826U 20078A   23107.78425222 -.00000037  00000+0  00000+0 0  9997
2 46826  54.3848 257.7337 0030050 189.1943 331.7318  2.00563158 18316
GPS BIII-5  (PRN 11)    
1 48859U 21054A   23107.47439444 -.00000105  00000+0  00000+0 0  9993
2 48859  55.3029  18.8314 0008684 214.4586 264.9441  2.00556903 13555
GPS BIII-6  (PRN 28)    
1 55268U 23009A   23107.25557000 -.00000003  00000+0  00000+0 0  9999
2 55268  55.0930 193.9080 0005914 101.9393 262.4796  2.00564626  2048
